QIANFAN-81              
1 63167U 25046J   26023.55660287  .00000300  00000+0  44558-3 0  9993
2 63167  88.9797 315.5517 0015564   6.9013 353.2350 13.51020908 53132
QIANFAN-82              
1 63168U 25046K   26023.59149691  .00000308  00000+0  45767-3 0  9990
2 63168  88.9796 315.5922 0013931  15.0190 345.1372 13.50993962 53126
QIANFAN-83              
1 63169U 25046L   26023.57472417  .00000391  00000+0  49114-3 0  9996
2 63169  88.9797 315.2882 0014654 358.6886   1.4230 13.61997478 53292
QIANFAN-84              
1 63170U 25046M   26023.61897966  .00000311  00000+0  46266-3 0  9990
2 63170  88.9796 315.7218 0016781  10.3776 349.7718 13.51003505 53055
QIANFAN-85              
1 63171U 25046N   26023.61605680  .00000303  00000+0  45049-3 0  9990
2 63171  88.9796 315.5938 0014260  13.6764 346.4771 13.50992803 53124
QIANFAN-86              
1 63172U 25046P   26023.55030982  .00000309  00000+0  46051-3 0  9991
2 63172  88.9798 315.4637 0012277  18.9641 341.1965 13.50994631 53195
QIANFAN-87              
1 63173U 25046Q   26023.59577169  .00000305  00000+0  45430-3 0  9995
2 63173  88.9794 315.5690 0012785  14.1636 345.9871 13.50992250 53135
QIANFAN-88              
1 63174U 25046R   26023.61190790  .00000321  00000+0  47782-3 0  9990
2 63174  88.9797 315.5230 0013397  21.1307 339.0395 13.50998439 53165
